<?xml version="1.0" ?>
<kml xmlns="http://www.opengis.net/kml/2.2">
  <Document>
    <name>NL511 Roads — 2026-06-05 19:54 UTC</name>
    <Style id="closed">
      <LineStyle>
        <color>ff0000ff</color>
        <width>4</width>
      </LineStyle>
    </Style>
    <Style id="travel_not_recommended">
      <LineStyle>
        <color>ff00d7ff</color>
        <width>4</width>
      </LineStyle>
    </Style>
    <Style id="partly_covered">
      <LineStyle>
        <color>ffcc99cc</color>
        <width>4</width>
      </LineStyle>
    </Style>
    <Style id="covered">
      <LineStyle>
        <color>ffffff00</color>
        <width>4</width>
      </LineStyle>
    </Style>
    <Style id="compact_snow">
      <LineStyle>
        <color>ffffff00</color>
        <width>4</width>
      </LineStyle>
    </Style>
    <Style id="bare_wet">
      <LineStyle>
        <color>ff000000</color>
        <width>4</width>
      </LineStyle>
    </Style>
    <Style id="bare_dry">
      <LineStyle>
        <color>ff000000</color>
        <width>4</width>
      </LineStyle>
    </Style>
    <Style id="poor_visibility">
      <LineStyle>
        <color>ffffffff</color>
        <width>4</width>
      </LineStyle>
    </Style>
    <Style id="__default__">
      <LineStyle>
        <color>ff888888</color>
        <width>4</width>
      </LineStyle>
    </Style>
    <Style id="closed">
      <LineStyle>
        <color>ff0000ff</color>
        <width>4</width>
      </LineStyle>
    </Style>
    <Style id="travel_not_recommended">
      <LineStyle>
        <color>ff00d7ff</color>
        <width>4</width>
      </LineStyle>
    </Style>
    <Style id="partly_covered">
      <LineStyle>
        <color>ffcc99cc</color>
        <width>4</width>
      </LineStyle>
    </Style>
    <Style id="covered">
      <LineStyle>
        <color>ffffff00</color>
        <width>4</width>
      </LineStyle>
    </Style>
    <Style id="compact_snow">
      <LineStyle>
        <color>ffffff00</color>
        <width>4</width>
      </LineStyle>
    </Style>
    <Style id="bare_wet">
      <LineStyle>
        <color>ff000000</color>
        <width>4</width>
      </LineStyle>
    </Style>
    <Style id="bare_dry">
      <LineStyle>
        <color>ff000000</color>
        <width>4</width>
      </LineStyle>
    </Style>
    <Style id="poor_visibility">
      <LineStyle>
        <color>ffffffff</color>
        <width>4</width>
      </LineStyle>
    </Style>
    <Style id="__default__">
      <LineStyle>
        <color>ff888888</color>
        <width>4</width>
      </LineStyle>
    </Style>
  </Document>
</kml>
